[{"OBJECT_NAME":"ONEWEB-0583","OBJECT_ID":"2022-166J","EPOCH":"2026-03-09T21:42:51.710688","MEAN_MOTION":13.21826745,"ECCENTRICITY":0.00014891,"INCLINATION":87.9164,"RA_OF_ASC_NODE":263.7961,"ARG_OF_PERICENTER":94.0839,"MEAN_ANOMALY":266.0465,"EPHEMERIS_TYPE":0,"CLASSIFICATION_TYPE":"U","NORAD_CAT_ID":54650,"ELEMENT_SET_NO":999,"REV_AT_EPOCH":15841,"BSTAR":-4.9105175e-5,"MEAN_MOTION_DOT":-7.0e-8,"MEAN_MOTION_DDOT":0},{"OBJECT_NAME":"OSCAR 30 DEB","OBJECT_ID":"1985-066H","EPOCH":"2026-03-09T22:59:08.932128","MEAN_MOTION":13.51741247,"ECCENTRICITY":0.01487251,"INCLINATION":90.1664,"RA_OF_ASC_NODE":68.3325,"ARG_OF_PERICENTER":100.9381,"MEAN_ANOMALY":293.3903,"EPHEMERIS_TYPE":0,"CLASSIFICATION_TYPE":"U","NORAD_CAT_ID":21878,"ELEMENT_SET_NO":999,"REV_AT_EPOCH":98535,"BSTAR":0.0015825479,"MEAN_MOTION_DOT":1.119e-5,"MEAN_MOTION_DDOT":0}]
